{"type": "FeatureCollection", "features": [ {"type": "Feature", "properties": {"norad_id": 66643, "name": "STARLINK-35918", "group": "last-30-days", "lat": 52.99472934917462, "lon": -55.81174197089908, "alt_km": 354.4026310540512, "timestamp": "2025-12-08T08:58:59.558188+00:00", "meta": {"OBJECT_NAME": "STARLINK-35918", "OBJECT_ID": "2025-271AC", "EPOCH": "2025-12-07T22:00:03.000096", "MEAN_MOTION": 15.7079447, "ECCENTRICITY": 7.261e-05, "INCLINATION": 53.159, "RA_OF_ASC_NODE": 210.583, "ARG_OF_PERICENTER": 84.3584, "MEAN_ANOMALY": 301.6289, "EPHEMERIS_TYPE": 0, "CLASSIFICATION_TYPE": "U", "NORAD_CAT_ID": 66643, "ELEMENT_SET_NO": 999, "REV_AT_EPOCH": 346, "BSTAR": -0.017478693, "MEAN_MOTION_DOT": -0.01959764, "MEAN_MOTION_DDOT": 0}, "tle": {"line1": "1 66643U 25271AC  25341.91670139 -.01959764  00000+0 -17479-1 0  9994", "line2": "2 66643  53.1590 210.5830 0000726  84.3584 301.6289 15.70794470  3462"}}, "geometry": {"type": "Point", "coordinates": [-55.81174197089908, 52.99472934917462]}}, {"type": "Feature", "properties": {"norad_id": 66644, "name": "STARLINK-35938", "group": "last-30-days", "lat": 52.79525214789931, "lon": -52.64531331525579, "alt_km": 354.4706104945926, "timestamp": "2025-12-08T08:58:59.558201+00:00", "meta": {"OBJECT_NAME": "STARLINK-35938", "OBJECT_ID": "2025-271AD", "EPOCH": "2025-12-07T22:00:03.000096", "MEAN_MOTION": 15.70749472, "ECCENTRICITY": 6.673e-05, "INCLINATION": 53.159, "RA_OF_ASC_NODE": 210.5785, "ARG_OF_PERICENTER": 81.2564, "MEAN_ANOMALY": 306.6834, "EPHEMERIS_TYPE": 0, "CLASSIFICATION_TYPE": "U", "NORAD_CAT_ID": 66644, "ELEMENT_SET_NO": 999, "REV_AT_EPOCH": 346, "BSTAR": -0.017060299, "MEAN_MOTION_DOT": -0.01914915, "MEAN_MOTION_DDOT": 0}, "tle": {"line1": "1 66644U 25271AD  25341.91670139 -.01914915  00000+0 -17060-1 0  9990", "line2": "2 66644  53.1590 210.5785 0000667  81.2564 306.6834 15.70749472  3463"}}, "geometry": {"type": "Point", "coordinates": [-52.64531331525579, 52.79525214789931]}}, {"type": "Feature", "properties": {"norad_id": 66645, "name": "SHENZHOU-22", "group": "last-30-days", "lat": 41.41898062562178, "lon": 130.6233591786003, "alt_km": 384.4171195091112, "timestamp": "2025-12-08T08:58:59.558211+00:00", "meta": {"OBJECT_NAME": "SHENZHOU-22", "OBJECT_ID": "2025-272A", "EPOCH": "2025-12-07T23:22:56.643744", "MEAN_MOTION": 15.58863749, "ECCENTRICITY": 0.00092535, "INCLINATION": 41.4683, "RA_OF_ASC_NODE": 45.6321, "ARG_OF_PERICENTER": 352.4121, "MEAN_ANOMALY": 7.6575, "EPHEMERIS_TYPE": 0, "CLASSIFICATION_TYPE": "U", "NORAD_CAT_ID": 66645, "ELEMENT_SET_NO": 999, "REV_AT_EPOCH": 26300, "BSTAR": 0.00029193568, "MEAN_MOTION_DOT": 0.00023028, "MEAN_MOTION_DDOT": 0}, "tle": {"line1": "1 66645U 25272A   25341.97426671  .00023028  00000+0  29194-3 0  9994", "line2": "2 66645  41.4683  45.6321 0009253 352.4121   7.6575 15.58863749263000"}}, "geometry": {"type": "Point", "coordinates": [130.6233591786003, 41.41898062562178]}}, {"type": "Feature", "properties": {"norad_id": 66646, "name": "CZ-2F R/B", "group": "last-30-days", "lat": -37.27696992986622, "lon": -23.4379876712709, "alt_km": 96.47308995047024, "timestamp": "2025-12-08T08:58:59.558222+00:00", "meta": {"OBJECT_NAME": "CZ-2F R/B", "OBJECT_ID": "2025-272B", "EPOCH": "2025-12-07T13:00:15.028704", "MEAN_MOTION": 16.47453798, "ECCENTRICITY": 0.002214, "INCLINATION": 41.4535, "RA_OF_ASC_NODE": 41.9834, "ARG_OF_PERICENTER": 229.6731, "MEAN_ANOMALY": 130.2205, "EPHEMERIS_TYPE": 0, "CLASSIFICATION_TYPE": "U", "NORAD_CAT_ID": 66646, "ELEMENT_SET_NO": 999, "REV_AT_EPOCH": 200, "BSTAR": 0.00015075, "MEAN_MOTION_DOT": 0.11903621, "MEAN_MOTION_DDOT": 8.0762e-06}, "tle": {"line1": "1 66646U 25272B   25341.54184061  .11903621  80762-5  15075-3 0  9992", "line2": "2 66646  41.4535  41.9834 0022140 229.6731 130.2205 16.47453798  2009"}}, "geometry": {"type": "Point", "coordinates": [-23.4379876712709, -37.27696992986622]}}, {"type": "Feature", "properties": {"norad_id": 66647, "name": "COSMOS 2597 (RODNIK-S 22)", "group": "last-30-days", "lat": 40.04379700888852, "lon": -64.48273476479274, "alt_km": 1496.2586369383944, "timestamp": "2025-12-08T08:58:59.558234+00:00", "meta": {"OBJECT_NAME": "COSMOS 2597 (RODNIK-S 22)", "OBJECT_ID": "2025-273A", "EPOCH": "2025-12-07T23:05:57.172992", "MEAN_MOTION": 12.41951155, "ECCENTRICITY": 0.00079984, "INCLINATION": 82.4982, "RA_OF_ASC_NODE": 289.4157, "ARG_OF_PERICENTER": 300.5438, "MEAN_ANOMALY": 59.4851, "EPHEMERIS_TYPE": 0, "CLASSIFICATION_TYPE": "U", "NORAD_CAT_ID": 66647, "ELEMENT_SET_NO": 999, "REV_AT_EPOCH": 154, "BSTAR": 9.4921565e-05, "MEAN_MOTION_DOT": 2.3e-07, "MEAN_MOTION_DDOT": 0}, "tle": {"line1": "1 66647U 25273A   25341.96246728  .00000023  00000+0  94922-4 0  9991", "line2": "2 66647  82.4982 289.4157 0007998 300.5438  59.4851 12.41951155  1542"}}, "geometry": {"type": "Point", "coordinates": [-64.48273476479274, 40.04379700888852]}}, {"type": "Feature", "properties": {"norad_id": 66648, "name": "COSMOS 2598 (RODNIK-S 23)", "group": "last-30-days", "lat": 58.57219943329232, "lon": -58.392246850938356, "alt_km": 1494.0552072119735, "timestamp": "2025-12-08T08:58:59.558245+00:00", "meta": {"OBJECT_NAME": "COSMOS 2598 (RODNIK-S 23)", "OBJECT_ID": "2025-273B", "EPOCH": "2025-12-07T23:00:16.822656", "MEAN_MOTION": 12.42861589, "ECCENTRICITY": 0.00072523, "INCLINATION": 82.503, "RA_OF_ASC_NODE": 289.4228, "ARG_OF_PERICENTER": 262.8168, "MEAN_ANOMALY": 97.2087, "EPHEMERIS_TYPE": 0, "CLASSIFICATION_TYPE": "U", "NORAD_CAT_ID": 66648, "ELEMENT_SET_NO": 999, "REV_AT_EPOCH": 154, "BSTAR": 4.8509881e-05, "MEAN_MOTION_DOT": 1.7e-07, "MEAN_MOTION_DDOT": 0}, "tle": {"line1": "1 66648U 25273B   25341.95852804  .00000017  00000+0  48510-4 0  9994", "line2": "2 66648  82.5030 289.4228 0007252 262.8168  97.2087 12.42861589  1543"}}, "geometry": {"type": "Point", "coordinates": [-58.392246850938356, 58.57219943329232]}}, {"type": "Feature", "properties": {"norad_id": 66649, "name": "COSMOS 2599 (RODNIK-S 24)", "group": "last-30-days", "lat": 27.41122242710678, "lon": -66.90978876626963, "alt_km": 1496.796665188569, "timestamp": "2025-12-08T08:58:59.558258+00:00", "meta": {"OBJECT_NAME": "COSMOS 2599 (RODNIK-S 24)", "OBJECT_ID": "2025-273C", "EPOCH": "2025-12-07T23:09:56.481120", "MEAN_MOTION": 12.41671779, "ECCENTRICITY": 0.0008215, "INCLINATION": 82.5023, "RA_OF_ASC_NODE": 289.4281, "ARG_OF_PERICENTER": 311.007, "MEAN_ANOMALY": 49.0298, "EPHEMERIS_TYPE": 0, "CLASSIFICATION_TYPE": "U", "NORAD_CAT_ID": 66649, "ELEMENT_SET_NO": 999, "REV_AT_EPOCH": 154, "BSTAR": 3.9797674e-05, "MEAN_MOTION_DOT": 1.5e-07, "MEAN_MOTION_DDOT": 0}, "tle": {"line1": "1 66649U 25273C   25341.96523705  .00000015  00000+0  39798-4 0  9997", "line2": "2 66649  82.5023 289.4281 0008215 311.0070  49.0298 12.41671779  1542"}}, "geometry": {"type": "Point", "coordinates": [-66.90978876626963, 27.41122242710678]}}, {"type": "Feature", "properties": {"norad_id": 66650, "name": "BEE-1000", "group": "last-30-days", "lat": -80.35374214976162, "lon": 36.505649978662326, "alt_km": 592.9286127375362, "timestamp": "2025-12-08T08:58:59.558268+00:00", "meta": {"OBJECT_NAME": "BEE-1000", "OBJECT_ID": "2025-274A", "EPOCH": "2025-12-07T18:55:18.632640", "MEAN_MOTION": 14.91635434, "ECCENTRICITY": 0.00104363, "INCLINATION": 97.7387, "RA_OF_ASC_NODE": 269.0671, "ARG_OF_PERICENTER": 270.7863, "MEAN_ANOMALY": 89.2159, "EPHEMERIS_TYPE": 0, "CLASSIFICATION_TYPE": "U", "NORAD_CAT_ID": 66650, "ELEMENT_SET_NO": 999, "REV_AT_EPOCH": 166, "BSTAR": 0.00027268297, "MEAN_MOTION_DOT": 2.686e-05, "MEAN_MOTION_DDOT": 0}, "tle": {"line1": "1 66650U 25274A   25341.78841010  .00002686  00000+0  27268-3 0  9996", "line2": "2 66650  97.7387 269.0671 0010436 270.7863  89.2159 14.91635434  1661"}}, "geometry": {"type": "Point", "coordinates": [36.505649978662326, -80.35374214976162]}}, {"type": "Feature", "properties": {"norad_id": 66651, "name": "2025-274B", "group": "last-30-days", "lat": -81.79879332376817, "lon": 18.993078890774854, "alt_km": 592.3356328880573, "timestamp": "2025-12-08T08:58:59.558278+00:00", "meta": {"OBJECT_NAME": "2025-274B", "OBJECT_ID": "2025-274B", "EPOCH": "2025-12-07T18:54:32.972832", "MEAN_MOTION": 14.91741029, "ECCENTRICITY": 0.00107706, "INCLINATION": 97.7385, "RA_OF_ASC_NODE": 269.067, "ARG_OF_PERICENTER": 270.0338, "MEAN_ANOMALY": 89.9647, "EPHEMERIS_TYPE": 0, "CLASSIFICATION_TYPE": "U", "NORAD_CAT_ID": 66651, "ELEMENT_SET_NO": 999, "REV_AT_EPOCH": 166, "BSTAR": 0.00063057091, "MEAN_MOTION_DOT": 6.304e-05, "MEAN_MOTION_DDOT": 0}, "tle": {"line1": "1 66651U 25274B   25341.78788163  .00006304  00000+0  63057-3 0  9993", "line2": "2 66651  97.7385 269.0670 0010770 270.0338  89.9647 14.91741029  1667"}}, "geometry": {"type": "Point", "coordinates": [18.993078890774854, -81.79879332376817]}}, {"type": "Feature", "properties": {"norad_id": 66652, "name": "2025-274C", "group": "last-30-days", "lat": -81.60544305840229, "lon": -23.202516128421035, "alt_km": 592.2102181754199, "timestamp": "2025-12-08T08:58:59.558289+00:00", "meta": {"OBJECT_NAME": "2025-274C", "OBJECT_ID": "2025-274C", "EPOCH": "2025-12-07T18:53:01.004352", "MEAN_MOTION": 14.91864093, "ECCENTRICITY": 0.00104162, "INCLINATION": 97.739, "RA_OF_ASC_NODE": 269.0692, "ARG_OF_PERICENTER": 276.9938, "MEAN_ANOMALY": 83.0096, "EPHEMERIS_TYPE": 0, "CLASSIFICATION_TYPE": "U", "NORAD_CAT_ID": 66652, "ELEMENT_SET_NO": 999, "REV_AT_EPOCH": 166, "BSTAR": 0.00040085256, "MEAN_MOTION_DOT": 3.998e-05, "MEAN_MOTION_DDOT": 0}, "tle": {"line1": "1 66652U 25274C   25341.78681718  .00003998  00000+0  40085-3 0  9994", "line2": "2 66652  97.7390 269.0692 0010416 276.9938  83.0096 14.91864093  1666"}}, "geometry": {"type": "Point", "coordinates": [-23.202516128421035, -81.60544305840229]}}]}